start=new Date('2022-04-23T00:00:00.000Z').valueOf();
sats=[{"OBJECT_ID":"2021-021AG","RA_OF_ASC_NODE":"120.6111","MEAN_ELEMENT_THEORY":"SGP4","OBJECT_NAME":"STARLINK-2350","MEAN_MOTION":"15.42170887","APOAPSIS":"441.227","PERIOD":"93.375","TLE_LINE1":"1 47890U 21021AG  22112.30108430  .00002558  00000-0  68198-4 0  9997","RCS_SIZE":"LARGE","INCLINATION":"53.0535","PERIAPSIS":"438.185","MEAN_MOTION_DOT":"0.00002558","BSTAR":"0.00006819800000","CLASSIFICATION_TYPE":"U","FILE":"3411458","GP_ID":"201823833","TLE_LINE2":"2 47890  53.0535 120.6111 0002231  26.8546 333.2574 15.42170887 62099","NORAD_CAT_ID":"47890","REF_FRAME":"TEME","ARG_OF_PERICENTER":"26.8546","EPHEMERIS_TYPE":"0","SITE":"AFETR","OBJECT_TYPE":"PAYLOAD","MEAN_MOTION_DDOT":"0.0000000000000","COUNTRY_CODE":"US","LAUNCH_DATE":"2021-03-14","EPOCH":"2022-04-22T07:13:33.683520","ECCENTRICITY":"0.00022310","SEMIMAJOR_AXIS":"6817.841","TIME_SYSTEM":"UTC","REV_AT_EPOCH":"6209","MEAN_ANOMALY":"333.2574","ELEMENT_SET_NO":"999","CENTER_NAME":"EARTH","DECAY_DATE":null},{"INCLINATION":"53.0539","RCS_SIZE":"LARGE","TLE_LINE1":"1 47891U 21021AH  22112.43962433  .00000278  00000-0  37591-4 0  9993","PERIOD":"95.592","MEAN_MOTION":"15.06409849","APOAPSIS":"548.381","OBJECT_NAME":"STARLINK-2351","MEAN_ELEMENT_THEORY":"SGP4","RA_OF_ASC_NODE":"163.9060","OBJECT_ID":"2021-021AH","REF_FRAME":"TEME","NORAD_CAT_ID":"47891","TLE_LINE2":"2 47891  53.0539 163.9060 0001729  56.7402 303.3752 15.06409849 62607","GP_ID":"201824085","FILE":"3411458","CLASSIFICATION_TYPE":"U","BSTAR":"0.00003759100000","MEAN_MOTION_DOT":"0.00000278","PERIAPSIS":"545.986","LAUNCH_DATE":"2021-03-14","COUNTRY_CODE":"US","MEAN_MOTION_DDOT":"0.0000000000000","SITE":"AFETR","OBJECT_TYPE":"PAYLOAD","EPHEMERIS_TYPE":"0","ARG_OF_PERICENTER":"56.7402","DECAY_DATE":null,"CENTER_NAME":"EARTH","ELEMENT_SET_NO":"999","MEAN_ANOMALY":"303.3752","REV_AT_EPOCH":"6260","SEMIMAJOR_AXIS":"6925.318","TIME_SYSTEM":"UTC","ECCENTRICITY":"0.00017290","EPOCH":"2022-04-22T10:33:03.542112"},{"ECCENTRICITY":"0.00019570","EPOCH":"2022-04-22T11:59:45.260160","DECAY_DATE":null,"CENTER_NAME":"EARTH","ELEMENT_SET_NO":"999","MEAN_ANOMALY":"316.5490","REV_AT_EPOCH":"6251","TIME_SYSTEM":"UTC","SEMIMAJOR_AXIS":"6893.335","SITE":"AFETR","OBJECT_TYPE":"PAYLOAD","EPHEMERIS_TYPE":"0","ARG_OF_PERICENTER":"43.5658","LAUNCH_DATE":"2021-03-14","MEAN_MOTION_DDOT":"0.0000000000000","COUNTRY_CODE":"US","BSTAR":"0.00026477000000","MEAN_MOTION_DOT":"0.00004972","PERIAPSIS":"513.851","REF_FRAME":"TEME","TLE_LINE2":"2 47892  53.0530 159.1921 0001957  43.5658 316.5490 15.16905970 62514","GP_ID":"201824335","NORAD_CAT_ID":"47892","FILE":"3411458","CLASSIFICATION_TYPE":"U","APOAPSIS":"516.549","MEAN_MOTION":"15.16905970","OBJECT_NAME":"STARLINK-2352","MEAN_ELEMENT_THEORY":"SGP4","RA_OF_ASC_NODE":"159.1921","OBJECT_ID":"2021-021AJ","INCLINATION":"53.0530","RCS_SIZE":"LARGE","TLE_LINE1":"1 47892U 21021AJ  22112.49982940  .00004972  00000-0  26477-3 0  9990","PERIOD":"94.930"},{"EPOCH":"2022-04-22T12:41:46.810464","ECCENTRICITY":"0.00018360","SEMIMAJOR_AXIS":"6925.342","TIME_SYSTEM":"UTC","MEAN_ANOMALY":"319.4770","REV_AT_EPOCH":"6254","ELEMENT_SET_NO":"999","DECAY_DATE":null,"CENTER_NAME":"EARTH","SITE":"AFETR","OBJECT_TYPE":"PAYLOAD","EPHEMERIS_TYPE":"0","ARG_OF_PERICENTER":"40.6356","LAUNCH_DATE":"2021-03-14","MEAN_MOTION_DDOT":"0.0000000000000","COUNTRY_CODE":"US","PERIAPSIS":"545.936","MEAN_MOTION_DOT":"0.00004036","BSTAR":"0.00028968000000","CLASSIFICATION_TYPE":"U","TLE_LINE2":"2 47894  53.0543 153.5065 0001836  40.6356 319.4770 15.06402041 62542","GP_ID":"201823084","NORAD_CAT_ID":"47894","FILE":"3411458","REF_FRAME":"TEME","OBJECT_ID":"2021-021AL","MEAN_ELEMENT_THEORY":"SGP4","RA_OF_ASC_NODE":"153.5065","APOAPSIS":"548.479","MEAN_MOTION":"15.06402041","OBJECT_NAME":"STARLINK-2354","PERIOD":"95.592","TLE_LINE1":"1 47894U 21021AL  22112.52901401  .00004036  00000-0  28968-3 0  9997","INCLINATION":"53.0543","RCS_SIZE":"LARGE"},{"BSTAR":"0.00023530000000","PERIAPSIS":"546.067","MEAN_MOTION_DOT":"0.00003225","FILE":"3411458","TLE_LINE2":"2 47895  53.0537 154.0579 0001664  52.9875 307.1266 15.06398200 62559","NORAD_CAT_ID":"47895","GP_ID":"201823334","REF_FRAME":"TEME","CLASSIFICATION_TYPE":"U","RA_OF_ASC_NODE":"154.0579","MEAN_ELEMENT_THEORY":"SGP4","OBJECT_NAME":"STARLINK-2355","MEAN_MOTION":"15.06398200","APOAPSIS":"548.371","OBJECT_ID":"2021-021AM","RCS_SIZE":"LARGE","INCLINATION":"53.0537","PERIOD":"95.592","TLE_LINE1":"1 47895U 21021AM  22112.40738141  .00003225  00000-0  23530-3 0  9993","ECCENTRICITY":"0.00016640","EPOCH":"2022-04-22T09:46:37.753824","ELEMENT_SET_NO":"999","CENTER_NAME":"EARTH","DECAY_DATE":null,"TIME_SYSTEM":"UTC","SEMIMAJOR_AXIS":"6925.354","REV_AT_EPOCH":"6255","MEAN_ANOMALY":"307.1266","ARG_OF_PERICENTER":"52.9875","OBJECT_TYPE":"PAYLOAD","SITE":"AFETR","EPHEMERIS_TYPE":"0","COUNTRY_CODE":"US","MEAN_MOTION_DDOT":"0.0000000000000","LAUNCH_DATE":"2021-03-14"},{"REF_FRAME":"TEME","FILE":"3411555","TLE_LINE2":"2 47896  53.0540 167.0034 0001819  48.6202 311.4943 15.06402442 61959","NORAD_CAT_ID":"47896","GP_ID":"201829906","CLASSIFICATION_TYPE":"U","BSTAR":"0.00010864000000","MEAN_MOTION_DOT":"0.00001337","PERIAPSIS":"545.946","RCS_SIZE":"LARGE","INCLINATION":"53.0540","TLE_LINE1":"1 47896U 21021AN  22112.86490158  .00001337  00000-0  10864-3 0  9995","PERIOD":"95.592","OBJECT_NAME":"STARLINK-2356","APOAPSIS":"548.466","MEAN_MOTION":"15.06402442","RA_OF_ASC_NODE":"167.0034","MEAN_ELEMENT_THEORY":"SGP4","OBJECT_ID":"2021-021AN","CENTER_NAME":"EARTH","DECAY_DATE":null,"ELEMENT_SET_NO":"999","REV_AT_EPOCH":"6195","MEAN_ANOMALY":"311.4943","SEMIMAJOR_AXIS":"6925.341","TIME_SYSTEM":"UTC","ECCENTRICITY":"0.00018190","EPOCH":"2022-04-22T20:45:27.496512","COUNTRY_CODE":"US","MEAN_MOTION_DDOT":"0.0000000000000","LAUNCH_DATE":"2021-03-14","ARG_OF_PERICENTER":"48.6202","OBJECT_TYPE":"PAYLOAD","SITE":"AFETR","EPHEMERIS_TYPE":"0"},{"EPOCH":"2022-04-22T09:45:15.861312","ECCENTRICITY":"0.00017450","MEAN_ANOMALY":"310.5679","REV_AT_EPOCH":"6258","TIME_SYSTEM":"UTC","SEMIMAJOR_AXIS":"6925.349","DECAY_DATE":null,"CENTER_NAME":"EARTH","ELEMENT_SET_NO":"999","SITE":"AFETR","OBJECT_TYPE":"PAYLOAD","EPHEMERIS_TYPE":"0","ARG_OF_PERICENTER":"49.5461","LAUNCH_DATE":"2021-03-14","COUNTRY_CODE":"US","MEAN_MOTION_DDOT":"0.0000000000000","MEAN_MOTION_DOT":"0.00000683","PERIAPSIS":"546.006","BSTAR":"0.00006473100000","CLASSIFICATION_TYPE":"U","REF_FRAME":"TEME","NORAD_CAT_ID":"47897","TLE_LINE2":"2 47897  53.0520 154.0396 0001745  49.5461 310.5679 15.06399789 62585","GP_ID":"201824835","FILE":"3411458","OBJECT_ID":"2021-021AP","APOAPSIS":"548.423","MEAN_MOTION":"15.06399789","OBJECT_NAME":"STARLINK-2357","MEAN_ELEMENT_THEORY":"SGP4","RA_OF_ASC_NODE":"154.0396","TLE_LINE1":"1 47897U 21021AP  22112.40643358  .00000683  00000-0  64731-4 0  9994","PERIOD":"95.592","RCS_SIZE":"LARGE","INCLINATION":"53.0520"},{"ECCENTRICITY":"0.00017150","EPOCH":"2022-04-22T12:47:05.375040","ELEMENT_SET_NO":"999","CENTER_NAME":"EARTH","DECAY_DATE":null,"TIME_SYSTEM":"UTC","SEMIMAJOR_AXIS":"6925.343","REV_AT_EPOCH":"6254","MEAN_ANOMALY":"307.7062","ARG_OF_PERICENTER":"52.4083","SITE":"AFETR","OBJECT_TYPE":"PAYLOAD","EPHEMERIS_TYPE":"0","MEAN_MOTION_DDOT":"0.0000000000000","COUNTRY_CODE":"US","LAUNCH_DATE":"2021-03-14","BSTAR":"0.00003725800000","PERIAPSIS":"546.020","MEAN_MOTION_DOT":"0.00000273","FILE":"3411458","GP_ID":"201823584","TLE_LINE2":"2 47898  53.0538 153.4964 0001715  52.4083 307.7062 15.06401835 62545","NORAD_CAT_ID":"47898","REF_FRAME":"TEME","CLASSIFICATION_TYPE":"U","RA_OF_ASC_NODE":"153.4964","MEAN_ELEMENT_THEORY":"SGP4","OBJECT_NAME":"STARLINK-2358","APOAPSIS":"548.396","MEAN_MOTION":"15.06401835","OBJECT_ID":"2021-021AQ","INCLINATION":"53.0538","RCS_SIZE":"LARGE","PERIOD":"95.592","TLE_LINE1":"1 47898U 21021AQ  22112.53270110  .00000273  00000-0  37258-4 0  9990"},{"MEAN_ELEMENT_THEORY":"SGP4","RA_OF_ASC_NODE":"143.5040","APOAPSIS":"548.389","MEAN_MOTION":"15.06397188","OBJECT_NAME":"STARLINK-2359","OBJECT_ID":"2021-021AR","INCLINATION":"53.0530","RCS_SIZE":"LARGE","PERIOD":"95.592","TLE_LINE1":"1 47899U 21021AR  22112.52994578  .00001491  00000-0  11896-3 0  9993","BSTAR":"0.00011896000000","PERIAPSIS":"546.055","MEAN_MOTION_DOT":"0.00001491","TLE_LINE2":"2 47899  53.0530 143.5040 0001685  58.8466 301.2688 15.06397188 62744","GP_ID":"201823834","NORAD_CAT_ID":"47899","FILE":"3411458","REF_FRAME":"TEME","CLASSIFICATION_TYPE":"U","SITE":"AFETR","OBJECT_TYPE":"PAYLOAD","EPHEMERIS_TYPE":"0","ARG_OF_PERICENTER":"58.8466","LAUNCH_DATE":"2021-03-14","COUNTRY_CODE":"US","MEAN_MOTION_DDOT":"0.0000000000000","ECCENTRICITY":"0.00016850","EPOCH":"2022-04-22T12:43:07.315392","ELEMENT_SET_NO":"999","DECAY_DATE":null,"CENTER_NAME":"EARTH","TIME_SYSTEM":"UTC","SEMIMAJOR_AXIS":"6925.357","MEAN_ANOMALY":"301.2688","REV_AT_EPOCH":"6274"},{"ELEMENT_SET_NO":"999","CENTER_NAME":"EARTH","DECAY_DATE":null,"SEMIMAJOR_AXIS":"6925.318","TIME_SYSTEM":"UTC","REV_AT_EPOCH":"6215","MEAN_ANOMALY":"308.2751","ECCENTRICITY":"0.00017660","EPOCH":"2022-04-22T19:39:43.647552","COUNTRY_CODE":"US","MEAN_MOTION_DDOT":"0.0000000000000","LAUNCH_DATE":"2021-03-14","ARG_OF_PERICENTER":"51.8397","SITE":"AFETR","OBJECT_TYPE":"PAYLOAD","EPHEMERIS_TYPE":"0","FILE":"3411698","TLE_LINE2":"2 47900  53.0543 152.2070 0001766  51.8397 308.2751 15.06409915 62152","GP_ID":"201832704","NORAD_CAT_ID":"47900","REF_FRAME":"TEME","CLASSIFICATION_TYPE":"U","BSTAR":"0.00021406000000","PERIAPSIS":"545.960","MEAN_MOTION_DOT":"0.00002909","RCS_SIZE":"LARGE","INCLINATION":"53.0543","PERIOD":"95.592","TLE_LINE1":"1 47900U 21021AS  22112.81925518  .00002909  00000-0  21406-3 0  9999","RA_OF_ASC_NODE":"152.2070","MEAN_ELEMENT_THEORY":"SGP4","OBJECT_NAME":"STARLINK-2360","MEAN_MOTION":"15.06409915","APOAPSIS":"548.406","OBJECT_ID":"2021-021AS"}];
